{
  "type": "FeatureCollection",
  "features": [
    {
      "type": "Feature",
      "properties": {
        "norad_id": 22490,
        "name": "SCD 1",
        "group": "resource",
        "lat": 0.10758122799651229,
        "lon": -128.85874015878505,
        "alt_km": 716.0964586207419,
        "timestamp": "2025-12-20T11:30:28.027400+00:00",
        "meta_object_name": "SCD 1",
        "meta_object_id": "1993-009B",
        "meta_epoch": "2025-12-20T02:06:40.199328",
        "meta_mean_motion": 14.46003712,
        "meta_eccentricity": 0.00421,
        "meta_inclination": 24.9683,
        "meta_ra_of_asc_node": 233.3258,
        "meta_arg_of_pericenter": 42.7923,
        "meta_mean_anomaly": 75.5892,
        "meta_ephemeris_type": 0,
        "meta_classification_type": "U",
        "meta_norad_cat_id": 22490,
        "meta_element_set_no": 999,
        "meta_rev_at_epoch": 73516,
        "meta_bstar": 6.2478e-05,
        "meta_mean_motion_dot": 4.13e-06,
        "meta_mean_motion_ddot": 0,
        "tle_line1": "1 22490U 93009B   25354.08796527  .00000413  00000+0  62478-4 0  9999",
        "tle_line2": "2 22490  24.9683 233.3258 0042100  42.7923  75.5892 14.46003712735167"
      },
      "geometry": {
        "type": "Point",
        "coordinates": [
          -128.85874015878505,
          0.10758122799651229
        ]
      }
    },
    {
      "type": "Feature",
      "properties": {
        "norad_id": 25397,
        "name": "TECHSAT 1B (GO-32)",
        "group": "resource",
        "lat": -53.524338829822376,
        "lon": 145.50217905685705,
        "alt_km": 818.8300422375623,
        "timestamp": "2025-12-20T11:30:28.027431+00:00",
        "meta_object_name": "TECHSAT 1B (GO-32)",
        "meta_object_id": "1998-043D",
        "meta_epoch": "2025-12-19T22:36:33.577056",
        "meta_mean_motion": 14.24378966,
        "meta_eccentricity": 0.0001832,
        "meta_inclination": 98.9926,
        "meta_ra_of_asc_node": 337.3205,
        "meta_arg_of_pericenter": 45.9373,
        "meta_mean_anomaly": 314.1956,
        "meta_ephemeris_type": 0,
        "meta_classification_type": "U",
        "meta_norad_cat_id": 25397,
        "meta_element_set_no": 999,
        "meta_rev_at_epoch": 42581,
        "meta_bstar": 4.0104e-05,
        "meta_mean_motion_dot": 4.6e-07,
        "meta_mean_motion_ddot": 0,
        "tle_line1": "1 25397U 98043D   25353.94205529  .00000046  00000+0  40104-4 0  9996",
        "tle_line2": "2 25397  98.9926 337.3205 0001832  45.9373 314.1956 14.24378966425818"
      },
      "geometry": {
        "type": "Point",
        "coordinates": [
          145.50217905685705,
          -53.524338829822376
        ]
      }
    },
    {
      "type": "Feature",
      "properties": {
        "norad_id": 25504,
        "name": "SCD 2",
        "group": "resource",
        "lat": 6.861427422111911,
        "lon": 109.14079365941893,
        "alt_km": 726.2888674136902,
        "timestamp": "2025-12-20T11:30:28.027448+00:00",
        "meta_object_name": "SCD 2",
        "meta_object_id": "1998-060A",
        "meta_epoch": "2025-12-20T00:34:20.176896",
        "meta_mean_motion": 14.45427003,
        "meta_eccentricity": 0.0016959,
        "meta_inclination": 24.9945,
        "meta_ra_of_asc_node": 96.9807,
        "meta_arg_of_pericenter": 30.6376,
        "meta_mean_anomaly": 130.1203,
        "meta_ephemeris_type": 0,
        "meta_classification_type": "U",
        "meta_norad_cat_id": 25504,
        "meta_element_set_no": 999,
        "meta_rev_at_epoch": 43437,
        "meta_bstar": 4.6916e-05,
        "meta_mean_motion_dot": 3.5e-06,
        "meta_mean_motion_ddot": 0,
        "tle_line1": "1 25504U 98060A   25354.02384464  .00000350  00000+0  46916-4 0  9996",
        "tle_line2": "2 25504  24.9945  96.9807 0016959  30.6376 130.1203 14.45427003434376"
      },
      "geometry": {
        "type": "Point",
        "coordinates": [
          109.14079365941893,
          6.861427422111911
        ]
      }
    },
    {
      "type": "Feature",
      "properties": {
        "norad_id": 25757,
        "name": "DLR-TUBSAT",
        "group": "resource",
        "lat": 28.480985997256496,
        "lon": 163.97314430391776,
        "alt_km": 707.0495654105089,
        "timestamp": "2025-12-20T11:30:28.027461+00:00",
        "meta_object_name": "DLR-TUBSAT",
        "meta_object_id": "1999-029B",
        "meta_epoch": "2025-12-17T13:22:10.787520",
        "meta_mean_motion": 14.52359578,
        "meta_eccentricity": 0.00141996,
        "meta_inclination": 98.6566,
        "meta_ra_of_asc_node": 336.2196,
        "meta_arg_of_pericenter": 177.8976,
        "meta_mean_anomaly": 182.2281,
        "meta_ephemeris_type": 0,
        "meta_classification_type": "U",
        "meta_norad_cat_id": 25757,
        "meta_element_set_no": 999,
        "meta_rev_at_epoch": 40688,
        "meta_bstar": 3.7650132e-05,
        "meta_mean_motion_dot": 1.05e-06,
        "meta_mean_motion_ddot": 0,
        "tle_line1": "1 25757U 99029B   25351.55706930  .00000105  00000+0  37650-4 0  9996",
        "tle_line2": "2 25757  98.6566 336.2196 0014199 177.8976 182.2281 14.52359578406886"
      },
      "geometry": {
        "type": "Point",
        "coordinates": [
          163.97314430391776,
          28.480985997256496
        ]
      }
    },
    {
      "type": "Feature",
      "properties": {
        "norad_id": 25994,
        "name": "TERRA",
        "group": "resource",
        "lat": 81.84414676341466,
        "lon": -56.15260828268604,
        "alt_km": 680.3348088926887,
        "timestamp": "2025-12-20T11:30:28.027474+00:00",
        "meta_object_name": "TERRA",
        "meta_object_id": "1999-068A",
        "meta_epoch": "2025-12-20T02:59:48.748992",
        "meta_mean_motion": 14.60909526,
        "meta_eccentricity": 0.0003544,
        "meta_inclination": 97.9738,
        "meta_ra_of_asc_node": 45.538,
        "meta_arg_of_pericenter": 79.9077,
        "meta_mean_anomaly": 307.8381,
        "meta_ephemeris_type": 0,
        "meta_classification_type": "U",
        "meta_norad_cat_id": 25994,
        "meta_element_set_no": 999,
        "meta_rev_at_epoch": 38346,
        "meta_bstar": 7.5299e-05,
        "meta_mean_motion_dot": 3.24e-06,
        "meta_mean_motion_ddot": 0,
        "tle_line1": "1 25994U 99068A   25354.12486978  .00000324  00000+0  75299-4 0  9999",
        "tle_line2": "2 25994  97.9738  45.5380 0003544  79.9077 307.8381 14.60909526383460"
      },
      "geometry": {
        "type": "Point",
        "coordinates": [
          -56.15260828268604,
          81.84414676341466
        ]
      }
    },
    {
      "type": "Feature",
      "properties": {
        "norad_id": 27004,
        "name": "MAROC-TUBSAT",
        "group": "resource",
        "lat": 75.28172952703655,
        "lon": 121.96065591562665,
        "alt_km": 1004.789344707312,
        "timestamp": "2025-12-20T11:30:28.027486+00:00",
        "meta_object_name": "MAROC-TUBSAT",
        "meta_object_id": "2001-056D",
        "meta_epoch": "2025-12-20T02:54:22.118112",
        "meta_mean_motion": 13.70253257,
        "meta_eccentricity": 0.0019172,
        "meta_inclination": 99.7914,
        "meta_ra_of_asc_node": 162.6953,
        "meta_arg_of_pericenter": 240.5213,
        "meta_mean_anomaly": 231.4874,
        "meta_ephemeris_type": 0,
        "meta_classification_type": "U",
        "meta_norad_cat_id": 27004,
        "meta_element_set_no": 999,
        "meta_rev_at_epoch": 20166,
        "meta_bstar": 1.892e-05,
        "meta_mean_motion_dot": -3e-07,
        "meta_mean_motion_ddot": 0,
        "tle_line1": "1 27004U 01056D   25354.12108933 -.00000030  00000+0  18920-4 0  9998",
        "tle_line2": "2 27004  99.7914 162.6953 0019172 240.5213 231.4874 13.70253257201662"
      },
      "geometry": {
        "type": "Point",
        "coordinates": [
          121.96065591562665,
          75.28172952703655
        ]
      }
    },
    {
      "type": "Feature",
      "properties": {
        "norad_id": 27424,
        "name": "AQUA",
        "group": "resource",
        "lat": -7.63483692537003,
        "lon": -43.37975829687983,
        "alt_km": 691.6518532533719,
        "timestamp": "2025-12-20T11:30:28.027498+00:00",
        "meta_object_name": "AQUA",
        "meta_object_id": "2002-022A",
        "meta_epoch": "2025-12-19T19:17:33.406368",
        "meta_mean_motion": 14.61824191,
        "meta_eccentricity": 0.00013487,
        "meta_inclination": 98.4046,
        "meta_ra_of_asc_node": 314.798,
        "meta_arg_of_pericenter": 112.3467,
        "meta_mean_anomaly": 286.6091,
        "meta_ephemeris_type": 0,
        "meta_classification_type": "U",
        "meta_norad_cat_id": 27424,
        "meta_element_set_no": 999,
        "meta_rev_at_epoch": 25706,
        "meta_bstar": 0.00015509968,
        "meta_mean_motion_dot": 7.25e-06,
        "meta_mean_motion_ddot": 0,
        "tle_line1": "1 27424U 02022A   25353.80385887  .00000725  00000+0  15510-3 0  9998",
        "tle_line2": "2 27424  98.4046 314.7980 0001348 112.3467 286.6091 14.61824191257063"
      },
      "geometry": {
        "type": "Point",
        "coordinates": [
          -43.37975829687983,
          -7.63483692537003
        ]
      }
    }
  ]
}